GLOBALSTAR M075         
1 37192U 10054E   24146.62661433 -.00000071  00000+0  18407-3 0  9991
2 37192  51.9953 281.5731 0000831 120.5420 252.8911 12.62274675627060
GLOBALSTAR M073         
1 37193U 10054F   24147.52919387 -.00000079  00000+0  13979-3 0  9993
2 37193  52.0041 192.3509 0000277 176.5921 339.1168 12.62265824629054
GLOBALSTAR M083         
1 37739U 11033A   24147.20886369 -.00000121  00000+0 -95884-4 0  9990
2 37739  51.9835 142.5830 0000386  69.8682  10.9484 12.62270196598342
GLOBALSTAR M088         
1 37740U 11033B   24146.48949832 -.00000089  00000+0  84436-4 0  9999
2 37740  51.9753  50.5900 0000844  76.4662  94.2325 12.62268385593431
GLOBALSTAR M091         
1 37741U 11033C   24147.05594115 -.00000080  00000+0  13099-3 0  9991
2 37741  52.0021  11.7302 0001145  89.0302  75.8283 12.62263047594555
GLOBALSTAR M085         
1 37742U 11033D   24147.20242839 -.00000092  00000+0  68143-4 0  9996
2 37742  51.9880 322.6644 0001110 104.9999  66.8106 12.62271350595316
GLOBALSTAR M081         
1 37743U 11033E   24146.48247035 -.00000084  00000+0  11147-3 0  9991
2 37743  51.9972 327.4055 0001071 113.8490 264.0767 12.62265276594885
GLOBALSTAR M089         
1 37744U 11033F   24146.87334012 -.00000082  00000+0  12214-3 0  9991
2 37744  51.9937 280.5179 0000532 147.0752  26.5840 12.62264053596027
